[{"OBJECT_NAME":"STARLINK-1678","OBJECT_ID":"2020-070G","EPOCH":"2026-03-09T10:20:30.561792","MEAN_MOTION":15.63661387,"ECCENTRICITY":0.00012396,"INCLINATION":53.043,"RA_OF_ASC_NODE":112.9372,"ARG_OF_PERICENTER":7.0847,"MEAN_ANOMALY":353.0184,"EPHEMERIS_TYPE":0,"CLASSIFICATION_TYPE":"U","NORAD_CAT_ID":46538,"ELEMENT_SET_NO":999,"REV_AT_EPOCH":30037,"BSTAR":0.00079593674,"MEAN_MOTION_DOT":0.00075684,"MEAN_MOTION_DDOT":0},{"OBJECT_NAME":"STARLINK-1905","OBJECT_ID":"2020-074H","EPOCH":"2026-03-10T00:00:02.999808","MEAN_MOTION":15.63325123,"ECCENTRICITY":6.855e-5,"INCLINATION":53.046,"RA_OF_ASC_NODE":282.151,"ARG_OF_PERICENTER":321.681,"MEAN_ANOMALY":191.3519,"EPHEMERIS_TYPE":0,"CLASSIFICATION_TYPE":"U","NORAD_CAT_ID":46746,"ELEMENT_SET_NO":999,"REV_AT_EPOCH":594,"BSTAR":0.0023463492,"MEAN_MOTION_DOT":0.00225364,"MEAN_MOTION_DDOT":0}]
